{"type": "FeatureCollection", "features": [ {"type": "Feature", "properties": {"norad_id": 39122, "name": "EUTELSAT 117 WEST A", "group": "eutelsat", "lat": -0.011092015622858256, "lon": -42.47577153289702, "alt_km": 35777.8348993033, "timestamp": "2025-12-24T22:42:21.693650+00:00", "meta": {"OBJECT_NAME": "EUTELSAT 117 WEST A", "OBJECT_ID": "2013-012A", "EPOCH": "2025-12-24T05:59:38.935680", "MEAN_MOTION": 1.00270856, "ECCENTRICITY": 0.00027022, "INCLINATION": 0.0212, "RA_OF_ASC_NODE": 315.8124, "ARG_OF_PERICENTER": 319.5212, "MEAN_ANOMALY": 150.8139, "EPHEMERIS_TYPE": 0, "CLASSIFICATION_TYPE": "U", "NORAD_CAT_ID": 39122, "ELEMENT_SET_NO": 999, "REV_AT_EPOCH": 4667, "BSTAR": 0, "MEAN_MOTION_DOT": 8e-08, "MEAN_MOTION_DDOT": 0}, "tle": {"line1": "1 39122U 13012A   25358.24975620  .00000008  00000+0  00000+0 0  9998", "line2": "2 39122   0.0212 315.8124 0002702 319.5212 150.8139  1.00270856 46671"}}, "geometry": {"type": "Point", "coordinates": [-42.47577153289702, -0.011092015622858256]}}, {"type": "Feature", "properties": {"norad_id": 39163, "name": "EUTELSAT 7B", "group": "eutelsat", "lat": 0.08365192095740207, "lon": 81.33531719093268, "alt_km": 35795.46804785199, "timestamp": "2025-12-24T22:42:21.693674+00:00", "meta": {"OBJECT_NAME": "EUTELSAT 7B", "OBJECT_ID": "2013-022A", "EPOCH": "2025-12-24T06:17:06.804384", "MEAN_MOTION": 1.00271515, "ECCENTRICITY": 0.00045642, "INCLINATION": 0.0658, "RA_OF_ASC_NODE": 7.5423, "ARG_OF_PERICENTER": 314.8563, "MEAN_ANOMALY": 231.9115, "EPHEMERIS_TYPE": 0, "CLASSIFICATION_TYPE": "U", "NORAD_CAT_ID": 39163, "ELEMENT_SET_NO": 999, "REV_AT_EPOCH": 4619, "BSTAR": 0, "MEAN_MOTION_DOT": 6.9e-07, "MEAN_MOTION_DDOT": 0}, "tle": {"line1": "1 39163U 13022A   25358.26188431  .00000069  00000+0  00000+0 0  9999", "line2": "2 39163   0.0658   7.5423 0004564 314.8563 231.9115  1.00271515 46197"}}, "geometry": {"type": "Point", "coordinates": [81.33531719093268, 0.08365192095740207]}}, {"type": "Feature", "properties": {"norad_id": 39612, "name": "EXPRESS-AT1", "group": "eutelsat", "lat": 0.0071522326480659495, "lon": 130.2966946231604, "alt_km": 35782.400849636295, "timestamp": "2025-12-24T22:42:21.693688+00:00", "meta": {"OBJECT_NAME": "EXPRESS-AT1", "OBJECT_ID": "2014-010A", "EPOCH": "2025-12-24T02:18:38.733696", "MEAN_MOTION": 1.00271168, "ECCENTRICITY": 9.11e-05, "INCLINATION": 0.0142, "RA_OF_ASC_NODE": 288.2114, "ARG_OF_PERICENTER": 190.815, "MEAN_ANOMALY": 64.5094, "EPHEMERIS_TYPE": 0, "CLASSIFICATION_TYPE": "U", "NORAD_CAT_ID": 39612, "ELEMENT_SET_NO": 999, "REV_AT_EPOCH": 4306, "BSTAR": 0, "MEAN_MOTION_DOT": 1e-06, "MEAN_MOTION_DDOT": 0}, "tle": {"line1": "1 39612U 14010A   25358.09628164  .00000100  00000+0  00000+0 0  9995", "line2": "2 39612   0.0142 288.2114 0000911 190.8150  64.5094  1.00271168 43068"}}, "geometry": {"type": "Point", "coordinates": [130.2966946231604, 0.0071522326480659495]}}, {"type": "Feature", "properties": {"norad_id": 39613, "name": "EXPRESS-AT2", "group": "eutelsat", "lat": -0.018448884530368647, "lon": -145.85711722875152, "alt_km": 35782.68701435327, "timestamp": "2025-12-24T22:42:21.693700+00:00", "meta": {"OBJECT_NAME": "EXPRESS-AT2", "OBJECT_ID": "2014-010B", "EPOCH": "2025-12-24T18:08:34.442880", "MEAN_MOTION": 1.00271834, "ECCENTRICITY": 0.0001555, "INCLINATION": 0.0179, "RA_OF_ASC_NODE": 290.7595, "ARG_OF_PERICENTER": 342.2022, "MEAN_ANOMALY": 232.5688, "EPHEMERIS_TYPE": 0, "CLASSIFICATION_TYPE": "U", "NORAD_CAT_ID": 39613, "ELEMENT_SET_NO": 999, "REV_AT_EPOCH": 4275, "BSTAR": 0, "MEAN_MOTION_DOT": -2.6e-06, "MEAN_MOTION_DDOT": 0}, "tle": {"line1": "1 39613U 14010B   25358.75595420 -.00000260  00000+0  00000+0 0  9995", "line2": "2 39613   0.0179 290.7595 0001555 342.2022 232.5688  1.00271834 42757"}}, "geometry": {"type": "Point", "coordinates": [-145.85711722875152, -0.018448884530368647]}}, {"type": "Feature", "properties": {"norad_id": 39773, "name": "EUTELSAT 3B", "group": "eutelsat", "lat": 0.08015198259155247, "lon": 77.38891055694619, "alt_km": 35802.38140780501, "timestamp": "2025-12-24T22:42:21.693712+00:00", "meta": {"OBJECT_NAME": "EUTELSAT 3B", "OBJECT_ID": "2014-030A", "EPOCH": "2025-12-24T06:15:59.412384", "MEAN_MOTION": 1.00272567, "ECCENTRICITY": 0.00043423, "INCLINATION": 0.0612, "RA_OF_ASC_NODE": 347.6458, "ARG_OF_PERICENTER": 244.272, "MEAN_ANOMALY": 318.2288, "EPHEMERIS_TYPE": 0, "CLASSIFICATION_TYPE": "U", "NORAD_CAT_ID": 39773, "ELEMENT_SET_NO": 999, "REV_AT_EPOCH": 4231, "BSTAR": 0, "MEAN_MOTION_DOT": 4.1e-07, "MEAN_MOTION_DDOT": 0}, "tle": {"line1": "1 39773U 14030A   25358.26110431  .00000041  00000+0  00000+0 0  9991", "line2": "2 39773   0.0612 347.6458 0004342 244.2720 318.2288  1.00272567 42313"}}, "geometry": {"type": "Point", "coordinates": [77.38891055694619, 0.08015198259155247]}}, {"type": "Feature", "properties": {"norad_id": 40425, "name": "EUTELSAT 115 WEST B", "group": "eutelsat", "lat": 0.0034949267154505146, "lon": -40.62700551475529, "alt_km": 35785.583607049484, "timestamp": "2025-12-24T22:42:21.693724+00:00", "meta": {"OBJECT_NAME": "EUTELSAT 115 WEST B", "OBJECT_ID": "2015-010B", "EPOCH": "2025-12-24T05:59:38.935680", "MEAN_MOTION": 1.00270958, "ECCENTRICITY": 1.68e-05, "INCLINATION": 0.0109, "RA_OF_ASC_NODE": 152.1321, "ARG_OF_PERICENTER": 169.5884, "MEAN_ANOMALY": 106.2964, "EPHEMERIS_TYPE": 0, "CLASSIFICATION_TYPE": "U", "NORAD_CAT_ID": 40425, "ELEMENT_SET_NO": 999, "REV_AT_EPOCH": 3963, "BSTAR": 0, "MEAN_MOTION_DOT": -4e-08, "MEAN_MOTION_DDOT": 0}, "tle": {"line1": "1 40425U 15010B   25358.24975620 -.00000004  00000+0  00000+0 0  9993", "line2": "2 40425   0.0109 152.1321 0000168 169.5884 106.2964  1.00270958 39639"}}, "geometry": {"type": "Point", "coordinates": [-40.62700551475529, 0.0034949267154505146]}}, {"type": "Feature", "properties": {"norad_id": 40875, "name": "EUTELSAT 8 WEST B", "group": "eutelsat", "lat": 0.07305716916517778, "lon": 66.31779398045153, "alt_km": 35802.09822618507, "timestamp": "2025-12-24T22:42:21.693736+00:00", "meta": {"OBJECT_NAME": "EUTELSAT 8 WEST B", "OBJECT_ID": "2015-039B", "EPOCH": "2025-12-24T06:12:52.211232", "MEAN_MOTION": 1.00271266, "ECCENTRICITY": 0.00042328, "INCLINATION": 0.0641, "RA_OF_ASC_NODE": 6.9443, "ARG_OF_PERICENTER": 266.9132, "MEAN_ANOMALY": 264.3953, "EPHEMERIS_TYPE": 0, "CLASSIFICATION_TYPE": "U", "NORAD_CAT_ID": 40875, "ELEMENT_SET_NO": 999, "REV_AT_EPOCH": 3790, "BSTAR": 0, "MEAN_MOTION_DOT": -4.5e-07, "MEAN_MOTION_DDOT": 0}, "tle": {"line1": "1 40875U 15039B   25358.25893763 -.00000045  00000+0  00000+0 0  9996", "line2": "2 40875   0.0641   6.9443 0004232 266.9132 264.3953  1.00271266 37909"}}, "geometry": {"type": "Point", "coordinates": [66.31779398045153, 0.07305716916517778]}}, {"type": "Feature", "properties": {"norad_id": 41310, "name": "EUTELSAT 9B", "group": "eutelsat", "lat": 0.0348449687811657, "lon": 83.32289610895083, "alt_km": 35804.68925731832, "timestamp": "2025-12-24T22:42:21.693748+00:00", "meta": {"OBJECT_NAME": "EUTELSAT 9B", "OBJECT_ID": "2016-005A", "EPOCH": "2025-12-24T06:17:44.244960", "MEAN_MOTION": 1.00272813, "ECCENTRICITY": 0.00045278, "INCLINATION": 0.023, "RA_OF_ASC_NODE": 38.5865, "ARG_OF_PERICENTER": 233.3148, "MEAN_ANOMALY": 284.5874, "EPHEMERIS_TYPE": 0, "CLASSIFICATION_TYPE": "U", "NORAD_CAT_ID": 41310, "ELEMENT_SET_NO": 999, "REV_AT_EPOCH": 3636, "BSTAR": 0, "MEAN_MOTION_DOT": 8.3e-07, "MEAN_MOTION_DDOT": 0}, "tle": {"line1": "1 41310U 16005A   25358.26231765  .00000083  00000+0  00000+0 0  9995", "line2": "2 41310   0.0230  38.5865 0004527 233.3148 284.5874  1.00272813 36363"}}, "geometry": {"type": "Point", "coordinates": [83.32289610895083, 0.0348449687811657]}}, {"type": "Feature", "properties": {"norad_id": 41382, "name": "EUTELSAT 65 WEST A", "group": "eutelsat", "lat": 0.023710127015350708, "lon": 9.14292341591898, "alt_km": 35786.50355073434, "timestamp": "2025-12-24T22:42:21.693761+00:00", "meta": {"OBJECT_NAME": "EUTELSAT 65 WEST A", "OBJECT_ID": "2016-014A", "EPOCH": "2025-12-24T00:43:23.206080", "MEAN_MOTION": 1.00272444, "ECCENTRICITY": 0.00022288, "INCLINATION": 0.0493, "RA_OF_ASC_NODE": 341.2447, "ARG_OF_PERICENTER": 294.7713, "MEAN_ANOMALY": 122.4597, "EPHEMERIS_TYPE": 0, "CLASSIFICATION_TYPE": "U", "NORAD_CAT_ID": 41382, "ELEMENT_SET_NO": 999, "REV_AT_EPOCH": 3577, "BSTAR": 0, "MEAN_MOTION_DOT": -2.55e-06, "MEAN_MOTION_DDOT": 0}, "tle": {"line1": "1 41382U 16014A   25358.03012970 -.00000255  00000+0  00000+0 0  9996", "line2": "2 41382   0.0493 341.2447 0002228 294.7713 122.4597  1.00272444 35774"}}, "geometry": {"type": "Point", "coordinates": [9.14292341591898, 0.023710127015350708]}}, {"type": "Feature", "properties": {"norad_id": 41589, "name": "EUTELSAT 117 WEST B", "group": "eutelsat", "lat": 0.0027909643865574652, "lon": -42.72343346597073, "alt_km": 35785.63503839113, "timestamp": "2025-12-24T22:42:21.693773+00:00", "meta": {"OBJECT_NAME": "EUTELSAT 117 WEST B", "OBJECT_ID": "2016-038B", "EPOCH": "2025-12-23T15:59:57.810912", "MEAN_MOTION": 1.00269264, "ECCENTRICITY": 2.679e-05, "INCLINATION": 0.0112, "RA_OF_ASC_NODE": 151.1868, "ARG_OF_PERICENTER": 153.5075, "MEAN_ANOMALY": 270.7383, "EPHEMERIS_TYPE": 0, "CLASSIFICATION_TYPE": "U", "NORAD_CAT_ID": 41589, "ELEMENT_SET_NO": 999, "REV_AT_EPOCH": 3490, "BSTAR": 0, "MEAN_MOTION_DOT": 1e-07, "MEAN_MOTION_DDOT": 0}, "tle": {"line1": "1 41589U 16038B   25357.66664133  .00000010  00000+0  00000+0 0  9991", "line2": "2 41589   0.0112 151.1868 0000267 153.5075 270.7383  1.00269264 34900"}}, "geometry": {"type": "Point", "coordinates": [-42.72343346597073, 0.0027909643865574652]}}]}